OBJECT_NAME,OBJECT_ID,EPOCH,MEAN_MOTION,ECCENTRICITY,INCLINATION,RA_OF_ASC_NODE,ARG_OF_PERICENTER,MEAN_ANOMALY,EPHEMERIS_TYPE,CLASSIFICATION_TYPE,NORAD_CAT_ID,ELEMENT_SET_NO,REV_AT_EPOCH,BSTAR,MEAN_MOTION_DOT,MEAN_MOTION_DDOT
QZS-3 (MICHIBIKI-3),2017-048A,2026-07-13T20:54:42.403968,1.00272707,.0002489,0.0675,215.7845,270.7153,245.9526,0,U,42917,999,3252,0,-.353E-5,0
AMAZONAS 5,2017-053A,2026-07-13T20:01:03.846720,1.00268959,.0001017,0.0328,327.9615,114.9682,88.0294,0,U,42934,999,3231,0,-.288E-5,0
ASIASAT 9,2017-057A,2026-07-13T20:53:20.036256,1.00265865,.0002201,0.0151,35.1643,58.5002,273.5154,0,U,42942,999,3212,0,-.365E-5,0
INTELSAT 37E (IS-37E),2017-059A,2026-07-13T20:13:23.060064,1.00269909,.0002537,0.0031,118.1162,5.2623,93.6695,0,U,42950,999,3233,0,-.146E-5,0
BSAT-4A,2017-059B,2026-07-13T12:16:30.855936,1.00272286,.00033938,0.0357,21.9752,56.7278,146.6395,0,U,42951,999,3206,0,-.354E-5,0
QZS-4 (MICHIBIKI-4),2017-062A,2026-07-12T17:38:03.472224,1.00290649,.07474587,40.0933,343.1604,268.5188,82.4158,0,U,42965,999,3205,0,-.331E-5,0
SES-11 (ECHOSTAR 105),2017-063A,2026-07-13T16:42:19.956384,1.00270960,.0002627,0.0414,294.3571,167.9499,334.8893,0,U,42967,999,3199,0,-.94E-6,0
KOREASAT 5A,2017-067A,2026-07-13T20:50:42.788256,1.00270477,.0000701,0.0104,42.6055,78.0329,236.9267,0,U,42984,999,3179,0,-.363E-5,0
ALCOMSAT 1,2017-078A,2026-07-13T21:04:42.070944,1.00268891,.0002189,0.0557,265.3669,204.5304,113.2179,0,U,43039,999,3156,0,-.192E-5,0
SBIRS GEO-3 (USA 282),2018-009A,2026-07-13T19:32:51.552384,1.00271787,.0001713,2.2033,13.3320,100.1825,311.9943,0,U,43162,999,3111,0,.122E-5,0
AL YAH 3,2018-012A,2026-07-13T20:12:45.621216,1.00270782,.0003504,1.6183,82.7832,29.6272,102.3825,0,U,43174,999,3111,0,-.162E-5,0
SES-14,2018-012B,2026-07-13T19:34:02.846208,1.00267678,.0000894,0.0128,26.6386,108.7999,42.2524,0,U,43175,999,729,0,-.284E-5,0
GOES 17,2018-022A,2026-07-13T14:45:02.606400,1.00271265,.000053,1.0025,85.2818,85.2007,252.7733,0,U,43226,999,3068,0,-.188E-5,0
HISPASAT 30W-6,2018-023A,2026-07-13T18:27:15.849216,1.00270659,.0005115,0.0437,49.2089,41.0141,88.2560,0,U,43228,999,3067,0,-.221E-5,0
SUPERBIRD-B3,2018-033A,2026-07-13T19:22:00.092064,1.00270687,.0001007,0.0158,19.3392,110.8292,254.0177,0,U,43271,999,3032,0,-.97E-6,0
HYLAS 4,2018-033B,2026-07-13T18:51:58.976928,1.00270440,.0000806,0.0175,307.6717,188.3469,45.1365,0,U,43272,999,3033,0,-.239E-5,0
IRNSS-1I,2018-035A,2026-07-11T22:55:34.502016,1.00278376,.0018194,28.8098,73.8104,177.6706,77.3491,0,U,43286,999,3032,0,.56E-6,0
USA 283,2018-036A,2026-07-13T12:26:22.439328,1.00270146,.000101,0.0181,51.7317,164.1991,36.1561,0,U,43339,999,2555,0,0,0
COSMOS 2526,2018-037A,2026-07-13T20:54:57.381408,1.00273092,.0000987,0.0314,94.4013,159.5029,119.6267,0,U,43432,999,3022,0,-.35E-5,0
APSTAR-6C,2018-041A,2026-07-13T10:40:49.533600,1.00269327,.000059,0.0221,1.4288,278.9644,305.1336,0,U,43450,999,3007,0,-.321E-5,0
BANGABANDHUSAT-1,2018-044A,2026-07-13T19:09:46.264032,1.00270746,.0001656,0.0198,94.0373,31.6335,212.5357,0,U,43463,999,2997,0,-.367E-5,0
SES-12,2018-049A,2026-07-13T21:29:44.831328,1.00270508,.0000784,0.0110,5.7115,249.9982,93.4942,0,U,43488,999,2968,0,-.275E-5,0
FENGYUN 2H,2018-050A,2026-07-13T21:01:33.705120,1.00267291,.0002304,3.0966,78.7532,133.9180,113.6184,0,U,43491,999,2970,0,-.135E-5,0
BEIDOU-2 IGSO-7,2018-057A,2026-07-01T21:23:21.693984,1.00246939,.01049468,55.1981,162.9292,237.8611,308.6338,0,U,43539,999,2927,0,-.33E-6,0
TELSTAR 19V,2018-059A,2026-07-13T20:00:33.896160,1.00269457,.0002829,0.0300,145.7946,345.8634,37.1836,0,U,43562,999,2941,0,-.285E-5,0
TELKOM 4 (MERAH PUTIH),2018-064A,2026-07-13T19:06:39.062880,1.00269560,.0000992,0.0204,80.5468,39.5635,206.2133,0,U,43587,999,2914,0,-.349E-5,0
TELSTAR 18V,2018-069A,2026-07-13T12:29:20.367168,1.00269998,.00016639,0.0151,318.0250,158.6111,140.0899,0,U,43611,999,2890,0,-.298E-5,0
AZERSPACE 2 (IS-38),2018-074A,2026-07-13T20:31:24.286080,1.00269893,.0001256,0.0257,48.3073,75.4462,160.9433,0,U,43632,999,2871,0,0,0
HORIZONS-3E,2018-074B,2026-07-13T15:21:38.464992,1.00270118,.0000941,0.0498,224.9289,53.6947,52.2963,0,U,43633,999,2860,0,-.35E-6,0
AEHF-4 (USA 288),2018-079A,2026-07-13T19:59:11.525856,1.00276733,.0058558,1.4396,6.1686,353.9969,163.7561,0,U,43651,999,2856,0,-.28E-5,0
BEIDOU-3 G1,2018-085A,2026-07-13T19:21:22.653216,1.00272550,.000802,2.9325,96.6555,356.0542,289.2698,0,U,43683,999,2832,0,-.117E-5,0
GSAT-29,2018-089A,2026-07-13T20:34:09.023232,1.00275452,.0002947,0.0579,241.1445,203.8157,210.4195,0,U,43698,999,2805,0,.79E-6,0
