QZS-3 (MICHIBIKI-3)     
1 42917U 17048A   26194.87132412 -.00000353  00000+0  00000+0 0  9993
2 42917   0.0675 215.7845 0002489 270.7153 245.9526  1.00272707 32524
AMAZONAS 5              
1 42934U 17053A   26194.83407230 -.00000288  00000+0  00000+0 0  9994
2 42934   0.0328 327.9615 0001017 114.9682  88.0294  1.00268959 32310
ASIASAT 9               
1 42942U 17057A   26194.87037079 -.00000365  00000+0  00000+0 0  9997
2 42942   0.0151  35.1643 0002201  58.5002 273.5154  1.00265865 32125
INTELSAT 37E (IS-37E)   
1 42950U 17059A   26194.84262801 -.00000146  00000+0  00000+0 0  9995
2 42950   0.0031 118.1162 0002537   5.2623  93.6695  1.00269909 32336
BSAT-4A                 
1 42951U 17059B   26194.51146824 -.00000354  00000+0  00000+0 0  9997
2 42951   0.0357  21.9752 0003393  56.7278 146.6395  1.00272286 32060
QZS-4 (MICHIBIKI-4)     
1 42965U 17062A   26193.73476241 -.00000331  00000+0  00000+0 0  9993
2 42965  40.0933 343.1604 0747458 268.5188  82.4158  1.00290649 32050
SES-11 (ECHOSTAR 105)   
1 42967U 17063A   26194.69606431 -.00000094  00000+0  00000+0 0  9994
2 42967   0.0414 294.3571 0002627 167.9499 334.8893  1.00270960 31997
KOREASAT 5A             
1 42984U 17067A   26194.86855079 -.00000363  00000+0  00000+0 0  9999
2 42984   0.0104  42.6055 0000701  78.0329 236.9267  1.00270477 31796
ALCOMSAT 1              
1 43039U 17078A   26194.87826471 -.00000192  00000+0  00000+0 0  9998
2 43039   0.0557 265.3669 0002189 204.5304 113.2179  1.00268891 31567
SBIRS GEO-3 (USA 282)   
1 43162U 18009A   26194.81448556  .00000122  00000+0  00000+0 0  9990
2 43162   2.2033  13.3320 0001713 100.1825 311.9943  1.00271787 31118
AL YAH 3                
1 43174U 18012A   26194.84219469 -.00000162  00000+0  00000+0 0  9994
2 43174   1.6183  82.7832 0003504  29.6272 102.3825  1.00270782 31114
SES-14                  
1 43175U 18012B   26194.81531072 -.00000284  00000+0  00000+0 0  9994
2 43175   0.0128  26.6386 0000894 108.7999  42.2524  1.00267678  7292
GOES 17                 
1 43226U 18022A   26194.61461350 -.00000188  00000+0  00000+0 0  9994
2 43226   1.0025  85.2818 0000530  85.2007 252.7733  1.00271265 30689
HISPASAT 30W-6          
1 43228U 18023A   26194.76893344 -.00000221  00000+0  00000+0 0  9993
2 43228   0.0437  49.2089 0005115  41.0141  88.2560  1.00270659 30675
SUPERBIRD-B3            
1 43271U 18033A   26194.80694551 -.00000097  00000+0  00000+0 0  9997
2 43271   0.0158  19.3392 0001007 110.8292 254.0177  1.00270687 30326
HYLAS 4                 
1 43272U 18033B   26194.78609927 -.00000239  00000+0  00000+0 0  9996
2 43272   0.0175 307.6717 0000806 188.3469  45.1365  1.00270440 30338
IRNSS-1I                
1 43286U 18035A   26192.95526044  .00000056  00000+0  00000+0 0  9994
2 43286  28.8098  73.8104 0018194 177.6706  77.3491  1.00278376 30323
USA 283                 
1 43339U 18036A   26194.51831527  .00000000  00000+0  00000+0 0  9992
2 43339   0.0181  51.7317 0001010 164.1991  36.1561  1.00270146 25551
COSMOS 2526             
1 43432U 18037A   26194.87149747 -.00000350  00000+0  00000+0 0  9991
2 43432   0.0314  94.4013 0000987 159.5029 119.6267  1.00273092 30225
APSTAR-6C               
1 43450U 18041A   26194.44501775 -.00000321  00000+0  00000+0 0  9990
2 43450   0.0221   1.4288 0000590 278.9644 305.1336  1.00269327 30071
BANGABANDHUSAT-1        
1 43463U 18044A   26194.79845213 -.00000367  00000+0  00000+0 0  9993
2 43463   0.0198  94.0373 0001656  31.6335 212.5357  1.00270746 29974
SES-12                  
1 43488U 18049A   26194.89565777 -.00000275  00000+0  00000+0 0  9998
2 43488   0.0110   5.7115 0000784 249.9982  93.4942  1.00270508 29681
FENGYUN 2H              
1 43491U 18050A   26194.87608455 -.00000135  00000+0  00000+0 0  9998
2 43491   3.0966  78.7532 0002304 133.9180 113.6184  1.00267291 29703
BEIDOU-2 IGSO-7         
1 43539U 18057A   26182.89122331 -.00000033  00000+0  00000+0 0  9998
2 43539  55.1981 162.9292 0104946 237.8611 308.6338  1.00246939 29273
TELSTAR 19V             
1 43562U 18059A   26194.83372565 -.00000285  00000+0  00000+0 0  9998
2 43562   0.0300 145.7946 0002829 345.8634  37.1836  1.00269457 29413
TELKOM 4 (MERAH PUTIH)  
1 43587U 18064A   26194.79628545 -.00000349  00000+0  00000+0 0  9999
2 43587   0.0204  80.5468 0000992  39.5635 206.2133  1.00269560 29149
TELSTAR 18V             
1 43611U 18069A   26194.52037462 -.00000298  00000+0  00000+0 0  9998
2 43611   0.0151 318.0250 0001663 158.6111 140.0899  1.00269998 28906
AZERSPACE 2 (IS-38)     
1 43632U 18074A   26194.85514220  .00000000  00000+0  00000+0 0  9995
2 43632   0.0257  48.3073 0001256  75.4462 160.9433  1.00269893 28713
HORIZONS-3E             
1 43633U 18074B   26194.64002853 -.00000035  00000+0  00000+0 0  9996
2 43633   0.0498 224.9289 0000941  53.6947  52.2963  1.00270118 28609
AEHF-4 (USA 288)        
1 43651U 18079A   26194.83277229 -.00000280  00000+0  00000+0 0  9995
2 43651   1.4396   6.1686 0058558 353.9969 163.7561  1.00276733 28565
BEIDOU-3 G1             
1 43683U 18085A   26194.80651219 -.00000117  00000+0  00000+0 0  9998
2 43683   2.9325  96.6555 0008020 356.0542 289.2698  1.00272550 28329
GSAT-29                 
1 43698U 18089A   26194.85704888  .00000079  00000+0  00000+0 0  9990
2 43698   0.0579 241.1445 0002947 203.8157 210.4195  1.00275452 28055
